OBJECT_NAME,OBJECT_ID,EPOCH,MEAN_MOTION,ECCENTRICITY,INCLINATION,RA_OF_ASC_NODE,ARG_OF_PERICENTER,MEAN_ANOMALY,EPHEMERIS_TYPE,CLASSIFICATION_TYPE,NORAD_CAT_ID,ELEMENT_SET_NO,REV_AT_EPOCH,BSTAR,MEAN_MOTION_DOT,MEAN_MOTION_DDOT
JILIN-1 GAOFEN 03D15,2022-019R,2026-05-10T20:58:02.987616,15.90601815,.0005428,97.3652,226.2064,235.2888,124.7875,0,U,51839,999,23417,.76761E-3,.234889E-2,.22277E-4
JILIN-1 GAOFEN 03D12,2022-019T,2026-05-10T20:25:00.674400,15.91602634,.0005735,97.3602,226.1219,221.6587,138.4250,0,U,51841,999,23417,.73969E-3,.238234E-2,.23117E-4
2022-023F,2022-023F,2026-05-10T20:34:56.657280,15.17793838,.0127688,63.4484,40.3824,344.0052,15.7043,0,U,51951,999,23204,.59876E-3,.14847E-3,0
MERIDIAN 10,2022-030A,2026-05-09T02:10:29.497152,2.00616584,.67733795,62.6773,144.9880,272.8849,17.7301,0,U,52145,999,3024,0,.246E-5,0
OMNI-L1,2022-033A,2026-05-10T18:59:08.109312,14.82608236,.0006319,97.8394,210.6982,57.4488,302.7335,0,U,52157,999,22191,.16669E-3,.129E-4,0
ENMAP,2022-033C,2026-05-10T20:29:48.687936,14.74955341,.0001467,97.9781,213.6332,85.0784,275.0592,0,U,52159,999,22115,.36719E-4,.197E-5,0
ARCSAT-1,2022-033E,2026-05-10T11:58:37.591680,15.52684652,.0004068,97.2733,222.2428,354.9322,5.1889,0,U,52161,999,22985,.14353E-3,.8752E-4,0
GLOBAL-18,2022-034B,2026-05-10T13:15:56.876832,15.44713246,.0005708,52.9817,76.2743,120.6408,239.5160,0,U,52196,999,23114,.2709E-3,.12451E-3,0
GAOFEN-3 03,2022-035A,2026-05-10T21:42:16.184736,14.42218038,.0001054,98.4080,140.0245,71.1110,289.0194,0,U,52200,999,21547,-.35966E-4,-.162E-5,0
DAQI-1,2022-039A,2026-05-10T20:55:34.908384,14.57654552,.0004338,98.1466,70.4996,29.2407,330.9034,0,U,52257,999,21650,.31875E-4,.1E-5,0
BRO-6,2022-047AE,2026-05-10T19:21:27.023328,15.48318712,.000503,97.3391,221.2143,190.3440,169.7708,0,U,52422,999,22536,.39471E-3,.20799E-3,0
JILIN-1 GAOFEN 3D27,2022-048B,2026-05-10T20:03:05.789952,15.68019489,.0005471,97.5666,241.6403,175.3028,184.8285,0,U,52444,999,22361,.5775E-3,.64205E-3,0
JILIN-1 GAOFEN 3D28,2022-048C,2026-05-10T19:54:18.336096,15.70059777,.0004165,97.5605,241.6679,190.3921,169.7255,0,U,52445,999,22365,.56436E-3,.68222E-3,0
VIGORIDE-3,2022-057AE,2026-05-10T20:47:31.108128,15.26883862,.0007129,97.6549,269.8760,251.9805,108.0656,0,U,52760,999,21946,.14487E-3,.3749E-4,0
ION SCV-006,2022-057AF,2026-05-10T20:30:33.861312,15.44419882,.0016484,97.6053,277.7245,247.0834,112.8674,0,U,52761,999,22035,.14682E-3,.6723E-4,0
SHERPA-AC1,2022-057AH,2026-05-10T20:49:51.546144,15.35731192,.000691,97.6637,278.5665,216.8561,143.2208,0,U,52763,999,21997,.14755E-3,.5043E-4,0
OMNI-L2,2022-057AR,2026-05-10T18:25:43.327776,14.81268564,.0008367,97.4733,195.6395,89.5461,270.6712,0,U,52771,999,21485,.12104E-3,.897E-5,0
STEP CUBE LAB-II,2022-065D,2026-05-10T20:50:33.234144,14.63243290,.0009443,98.2176,274.8968,135.9535,224.2421,0,U,52897,999,20604,.15875E-3,.77E-5,0
RANDEV,2022-065E,2026-05-10T21:06:15.877152,14.63627926,.000876,98.2164,275.2427,135.6933,224.4971,0,U,52898,999,20579,.13766E-3,.668E-5,0
SNUGLITE-II,2022-065F,2026-05-10T20:35:57.075072,14.64276089,.0008459,98.2152,275.7672,134.9973,225.1917,0,U,52899,999,20553,.13146E-3,.645E-5,0
MIMAN,2022-065G,2026-05-10T07:59:47.184000,14.61800844,.0008509,98.2209,273.0181,137.9589,222.2266,0,U,52900,999,20491,.92491E-4,.414E-5,0
STARLINK-4362,2022-077A,2026-05-10T18:47:41.231904,15.05660260,.0001919,97.5100,311.1198,101.3311,258.8132,0,U,53043,999,21025,-.1225E-3,-.1827E-4,0
LARES-2,2022-080A,2026-05-07T03:52:33.796992,6.38965197,.0005357,70.1704,319.3995,343.8104,16.2342,0,U,53105,999,8904,0,-.8E-7,0
GREENCUBE (IO-117),2022-080E,2026-05-10T12:29:12.903072,6.42583327,.0008874,70.1439,311.3507,298.5000,61.4765,0,U,53109,999,8964,0,-.3E-7,0
STARLINK-4410,2022-084R,2026-05-10T20:00:01.999008,15.15127999,.0001802,97.5987,191.4350,99.5343,209.8307,0,U,53204,999,551,-.15169E-2,-.28359E-3,0
COSMOS 2558,2022-089A,2026-05-10T19:57:23.002272,15.68489009,.0002599,97.2245,233.5844,178.3394,181.7877,0,U,53323,999,21196,.51898E-3,.58727E-3,0
TECMS,2022-090A,2026-05-10T20:47:28.491936,15.21424641,.0001934,97.3152,200.0273,353.8227,6.2985,0,U,53346,999,20913,.11217E-3,.245E-4,0
DONGPO 02,2022-098J,2026-05-10T20:28:51.682080,15.68200939,.0002581,97.5468,259.0305,127.2639,232.8857,0,U,53452,999,20893,.5094E-3,.56955E-3,0
DONGPO 01,2022-098K,2026-05-10T20:44:42.566784,15.66641700,.0000873,97.5531,259.6441,149.0726,211.0585,0,U,53453,999,20890,.46579E-3,.48834E-3,0
