JILIN-1 GAOFEN 03D15    
1 51839U 22019R   26130.87364569  .00234889  22277-4  76761-3 0  9998
2 51839  97.3652 226.2064 0005428 235.2888 124.7875 15.90601815234174
JILIN-1 GAOFEN 03D12    
1 51841U 22019T   26130.85070225  .00238234  23117-4  73969-3 0  9991
2 51841  97.3602 226.1219 0005735 221.6587 138.4250 15.91602634234179
2022-023F               
1 51951U 22023F   26130.85760020  .00014847  00000+0  59876-3 0  9991
2 51951  63.4484  40.3824 0127688 344.0052  15.7043 15.17793838232046
MERIDIAN 10             
1 52145U 22030A   26129.09061918  .00000246  00000+0  00000+0 0  9998
2 52145  62.6773 144.9880 6773379 272.8849  17.7301  2.00616584 30246
OMNI-L1                 
1 52157U 22033A   26130.79106608  .00001290  00000+0  16669-3 0  9991
2 52157  97.8394 210.6982 0006319  57.4488 302.7335 14.82608236221913
ENMAP                   
1 52159U 22033C   26130.85403574  .00000197  00000+0  36719-4 0  9996
2 52159  97.9781 213.6332 0001467  85.0784 275.0592 14.74955341221159
ARCSAT-1                
1 52161U 22033E   26130.49904620  .00008752  00000+0  14353-3 0  9991
2 52161  97.2733 222.2428 0004068 354.9322   5.1889 15.52684652229857
GLOBAL-18               
1 52196U 22034B   26130.55274163  .00012451  00000+0  27090-3 0  9992
2 52196  52.9817  76.2743 0005708 120.6408 239.5160 15.44713246231141
GAOFEN-3 03             
1 52200U 22035A   26130.90435399 -.00000162  00000+0 -35966-4 0  9998
2 52200  98.4080 140.0245 0001054  71.1110 289.0194 14.42218038215472
DAQI-1                  
1 52257U 22039A   26130.87193181  .00000100  00000+0  31875-4 0  9995
2 52257  98.1466  70.4996 0004338  29.2407 330.9034 14.57654552216504
BRO-6                   
1 52422U 22047AE  26130.80656277  .00020799  00000+0  39471-3 0  9996
2 52422  97.3391 221.2143 0005030 190.3440 169.7708 15.48318712225369
JILIN-1 GAOFEN 3D27     
1 52444U 22048B   26130.83548368  .00064205  00000+0  57750-3 0  9995
2 52444  97.5666 241.6403 0005471 175.3028 184.8285 15.68019489223614
JILIN-1 GAOFEN 3D28     
1 52445U 22048C   26130.82937889  .00068222  00000+0  56436-3 0  9998
2 52445  97.5605 241.6679 0004165 190.3921 169.7255 15.70059777223651
VIGORIDE-3              
1 52760U 22057AE  26130.86633227  .00003749  00000+0  14487-3 0  9994
2 52760  97.6549 269.8760 0007129 251.9805 108.0656 15.26883862219466
ION SCV-006             
1 52761U 22057AF  26130.85455858  .00006723  00000+0  14682-3 0  9998
2 52761  97.6053 277.7245 0016484 247.0834 112.8674 15.44419882220355
SHERPA-AC1              
1 52763U 22057AH  26130.86795771  .00005043  00000+0  14755-3 0  9997
2 52763  97.6637 278.5665 0006910 216.8561 143.2208 15.35731192219972
OMNI-L2                 
1 52771U 22057AR  26130.76786259  .00000897  00000+0  12104-3 0  9994
2 52771  97.4733 195.6395 0008367  89.5461 270.6712 14.81268564214852
STEP CUBE LAB-II        
1 52897U 22065D   26130.86844021  .00000770  00000+0  15875-3 0  9993
2 52897  98.2176 274.8968 0009443 135.9535 224.2421 14.63243290206044
RANDEV                  
1 52898U 22065E   26130.87935043  .00000668  00000+0  13766-3 0  9993
2 52898  98.2164 275.2427 0008760 135.6933 224.4971 14.63627926205792
SNUGLITE-II             
1 52899U 22065F   26130.85829948  .00000645  00000+0  13146-3 0  9995
2 52899  98.2152 275.7672 0008459 134.9973 225.1917 14.64276089205539
MIMAN                   
1 52900U 22065G   26130.33318500  .00000414  00000+0  92491-4 0  9993
2 52900  98.2209 273.0181 0008509 137.9589 222.2266 14.61800844204918
STARLINK-4362           
1 53043U 22077A   26130.78311611 -.00001827  00000+0 -12250-3 0  9995
2 53043  97.5100 311.1198 0001919 101.3311 258.8132 15.05660260210253
LARES-2                 
1 53105U 22080A   26127.16150228 -.00000008  00000+0  00000+0 0  9996
2 53105  70.1704 319.3995 0005357 343.8104  16.2342  6.38965197 89040
GREENCUBE (IO-117)      
1 53109U 22080E   26130.52028823 -.00000003  00000+0  00000+0 0  9994
2 53109  70.1439 311.3507 0008874 298.5000  61.4765  6.42583327 89641
STARLINK-4410           
1 53204U 22084R   26130.83335647 -.00028359  00000+0 -15169-2 0  9993
2 53204  97.5987 191.4350 0001802  99.5343 209.8307 15.15127999  5517
COSMOS 2558             
1 53323U 22089A   26130.83151623  .00058727  00000+0  51898-3 0  9990
2 53323  97.2245 233.5844 0002599 178.3394 181.7877 15.68489009211964
TECMS                   
1 53346U 22090A   26130.86630199  .00002450  00000+0  11217-3 0  9993
2 53346  97.3152 200.0273 0001934 353.8227   6.2985 15.21424641209136
DONGPO 02               
1 53452U 22098J   26130.85337595  .00056955  00000+0  50940-3 0  9997
2 53452  97.5468 259.0305 0002581 127.2639 232.8857 15.68200939208930
DONGPO 01               
1 53453U 22098K   26130.86438156  .00048834  00000+0  46579-3 0  9994
2 53453  97.5531 259.6441 0000873 149.0726 211.0585 15.66641700208907
